{
  "norad_id": 57120,
  "name": "STARLINK-6147",
  "history": [
    {
      "epoch": "2026-03-28T11:56:28.745952Z",
      "apogee_km": 560.1640537547828,
      "perigee_km": 558.0565180293279,
      "latitude_deg": 3.7962527434840676e-05,
      "longitude_deg": 167.31861739735308,
      "height_km": 558.9409137432324,
      "semi_major_axis_km": 6937.247285892055,
      "eccentricity": 0.0001519,
      "inclination_deg": 43.0021,
      "raan_deg": 172.3555,
      "arg_perigee_deg": 267.2191,
      "mean_anomaly_deg": 92.8478,
      "mean_motion_rev_day": 15.02526009
    },
    {
      "epoch": "2026-03-29T05:29:29.265216Z",
      "apogee_km": 560.0619574328493,
      "perigee_km": 558.0890142018825,
      "latitude_deg": 2.5822934820127074e-05,
      "longitude_deg": -100.62551804161004,
      "height_km": 558.7978692493054,
      "semi_major_axis_km": 6937.212485817366,
      "eccentricity": 0.0001422,
      "inclination_deg": 43.0027,
      "raan_deg": 168.3843,
      "arg_perigee_deg": 273.3195,
      "mean_anomaly_deg": 86.7485,
      "mean_motion_rev_day": 15.02537315
    },
    {
      "epoch": "2026-03-30T05:25:24.841344Z",
      "apogee_km": 559.8657607298992,
      "perigee_km": 558.3028047748949,
      "latitude_deg": 2.9273460645803446e-05,
      "longitude_deg": -106.00663751641989,
      "height_km": 558.8059702369668,
      "semi_major_axis_km": 6937.221282752397,
      "eccentricity": 0.00011265,
      "inclination_deg": 43.0034,
      "raan_deg": 162.9676,
      "arg_perigee_deg": 274.2301,
      "mean_anomaly_deg": 85.8413,
      "mean_motion_rev_day": 15.02534457
    },
    {
      "epoch": "2026-03-30T13:24:03.292416Z",
      "apogee_km": 559.8985831453601,
      "perigee_km": 558.2718045409047,
      "latitude_deg": -2.3948969031867212e-06,
      "longitude_deg": 132.19939827622687,
      "height_km": 558.8376350163825,
      "semi_major_axis_km": 6937.222193843132,
      "eccentricity": 0.00011725,
      "inclination_deg": 43.0037,
      "raan_deg": 161.1615,
      "arg_perigee_deg": 271.8997,
      "mean_anomaly_deg": 88.1711,
      "mean_motion_rev_day": 15.02534161
    },
    {
      "epoch": "2026-03-30T21:22:41.543904Z",
      "apogee_km": 559.9012938281012,
      "perigee_km": 558.254676479225,
      "latitude_deg": 4.1464743331536136e-05,
      "longitude_deg": 10.406348486060306,
      "height_km": 558.8308639823099,
      "semi_major_axis_km": 6937.214985153663,
      "eccentricity": 0.00011868,
      "inclination_deg": 43.0038,
      "raan_deg": 159.3554,
      "arg_perigee_deg": 271.8476,
      "mean_anomaly_deg": 88.2231,
      "mean_motion_rev_day": 15.02536503
    },
    {
      "epoch": "2026-03-31T13:19:57.296928Z",
      "apogee_km": 559.7690876282868,
      "perigee_km": 558.3150548949516,
      "latitude_deg": -1.3349877183096313e-05,
      "longitude_deg": 126.81973040498258,
      "height_km": 558.8099456671298,
      "semi_major_axis_km": 6937.179071261619,
      "eccentricity": 0.0001048,
      "inclination_deg": 43.0002,
      "raan_deg": 155.7397,
      "arg_perigee_deg": 270.8697,
      "mean_anomaly_deg": 89.2025,
      "mean_motion_rev_day": 15.02548171
    },
    {
      "epoch": "2026-04-01T06:52:06.585312Z",
      "apogee_km": 559.781438662083,
      "perigee_km": 554.9460075579309,
      "latitude_deg": -4.106497174427446e-06,
      "longitude_deg": -140.91553473456452,
      "height_km": 559.1728106265451,
      "semi_major_axis_km": 6935.500723110007,
      "eccentricity": 0.0003486,
      "inclination_deg": 43.0021,
      "raan_deg": 151.7633,
      "arg_perigee_deg": 147.2534,
      "mean_anomaly_deg": 212.8525,
      "mean_motion_rev_day": 15.03093615
    },
    {
      "epoch": "2026-04-02T20:00:01.999008Z",
      "apogee_km": 549.7261059421598,
      "perigee_km": 547.4125860226013,
      "latitude_deg": 40.61224738175532,
      "longitude_deg": 126.01676972622717,
      "height_km": 552.3259720035962,
      "semi_major_axis_km": 6926.70634598238,
      "eccentricity": 0.000167,
      "inclination_deg": 43.0001,
      "raan_deg": 143.3347,
      "arg_perigee_deg": 296.3444,
      "mean_anomaly_deg": 171.5647,
      "mean_motion_rev_day": 15.0595709
    },
    {
      "epoch": "2026-04-02T22:00:01.999584Z",
      "apogee_km": 548.9411274867398,
      "perigee_km": 547.5720565293432,
      "latitude_deg": -13.628487918641724,
      "longitude_deg": 176.5961919875092,
      "height_km": 550.4998895427066,
      "semi_major_axis_km": 6926.393592008041,
      "eccentricity": 9.883e-05,
      "inclination_deg": 43.0006,
      "raan_deg": 142.8779,
      "arg_perigee_deg": 264.9185,
      "mean_anomaly_deg": 295.1071,
      "mean_motion_rev_day": 15.06059091
    },
    {
      "epoch": "2026-04-03T20:00:01.999008Z",
      "apogee_km": 545.4463599016708,
      "perigee_km": 544.0797794279197,
      "latitude_deg": 28.35210896487982,
      "longitude_deg": 150.56658912828624,
      "height_km": 545.7675285754957,
      "semi_major_axis_km": 6922.900069664795,
      "eccentricity": 9.87e-05,
      "inclination_deg": 43.0002,
      "raan_deg": 137.8711,
      "arg_perigee_deg": 308.1649,
      "mean_anomaly_deg": 187.8918,
      "mean_motion_rev_day": 15.07199245
    },
    {
      "epoch": "2026-04-04T20:00:01.999008Z",
      "apogee_km": 541.5792539592021,
      "perigee_km": 540.3836302924028,
      "latitude_deg": 7.6715224166916585,
      "longitude_deg": 170.9813821608688,
      "height_km": 540.597088670517,
      "semi_major_axis_km": 6919.118442125802,
      "eccentricity": 8.64e-05,
      "inclination_deg": 43.0005,
      "raan_deg": 132.3966,
      "arg_perigee_deg": 316.9291,
      "mean_anomaly_deg": 211.7718,
      "mean_motion_rev_day": 15.08435048
    },
    {
      "epoch": "2026-04-05T14:00:03.000384Z",
      "apogee_km": 539.3334098875093,
      "perigee_km": 537.4010769319857,
      "latitude_deg": -41.06082369230648,
      "longitude_deg": 16.08433315215443,
      "height_km": 549.9150879254469,
      "semi_major_axis_km": 6916.504243409748,
      "eccentricity": 0.00013969,
      "inclination_deg": 42.9987,
      "raan_deg": 128.282,
      "arg_perigee_deg": 275.2908,
      "mean_anomaly_deg": 10.9652,
      "mean_motion_rev_day": 15.09290333
    },
    {
      "epoch": "2026-04-05T20:00:03.000384Z",
      "apogee_km": 538.1233448256962,
      "perigee_km": 536.6821463427159,
      "latitude_deg": -17.503733451074712,
      "longitude_deg": -167.58630167569888,
      "height_km": 541.1575309905576,
      "semi_major_axis_km": 6915.539745584206,
      "eccentricity": 0.0001042,
      "inclination_deg": 43.0005,
      "raan_deg": 126.9059,
      "arg_perigee_deg": 304.2996,
      "mean_anomaly_deg": 261.6542,
      "mean_motion_rev_day": 15.09606091
    },
    {
      "epoch": "2026-04-06T02:00:01.999872Z",
      "apogee_km": 537.538386446181,
      "perigee_km": 535.4666221579027,
      "latitude_deg": 33.688788401985356,
      "longitude_deg": 35.82453624945007,
      "height_km": 538.701089160442,
      "semi_major_axis_km": 6914.639504302042,
      "eccentricity": 0.00014981,
      "inclination_deg": 42.9987,
      "raan_deg": 125.5279,
      "arg_perigee_deg": 286.5173,
      "mean_anomaly_deg": 199.3311,
      "mean_motion_rev_day": 15.09900912
    },
    {
      "epoch": "2026-04-07T14:00:01.999872Z",
      "apogee_km": 532.5088676397909,
      "perigee_km": 529.1658912965413,
      "latitude_deg": 7.773529777229284,
      "longitude_deg": 79.79437748597898,
      "height_km": 530.0873754041681,
      "semi_major_axis_km": 6908.974379468165,
      "eccentricity": 0.00024193,
      "inclination_deg": 43.0004,
      "raan_deg": 117.2897,
      "arg_perigee_deg": 276.3781,
      "mean_anomaly_deg": 95.0489,
      "mean_motion_rev_day": 15.11758394
    },
    {
      "epoch": "2026-04-07T20:00:00.999360Z",
      "apogee_km": 531.2868093246625,
      "perigee_km": 528.4075615161792,
      "latitude_deg": -38.9593562834194,
      "longitude_deg": -79.77942617263669,
      "height_km": 540.4953412750962,
      "semi_major_axis_km": 6907.9841854204205,
      "eccentricity": 0.0002084,
      "inclination_deg": 43.0006,
      "raan_deg": 115.9113,
      "arg_perigee_deg": 246.1411,
      "mean_anomaly_deg": 47.1218,
      "mean_motion_rev_day": 15.1208345
    },
    {
      "epoch": "2026-04-08T14:00:04.999680Z",
      "apogee_km": 528.5236132379232,
      "perigee_km": 525.6346089213694,
      "latitude_deg": 36.71611721370608,
      "longitude_deg": 117.60297150111649,
      "height_km": 529.7378471044655,
      "semi_major_axis_km": 6905.216111079646,
      "eccentricity": 0.00020919,
      "inclination_deg": 43.0005,
      "raan_deg": 111.7764,
      "arg_perigee_deg": 294.4273,
      "mean_anomaly_deg": 126.4526,
      "mean_motion_rev_day": 15.12992758
    },
    {
      "epoch": "2026-04-09T20:00:01.999008Z",
      "apogee_km": 523.8796717196001,
      "perigee_km": 520.9910921205274,
      "latitude_deg": 25.22983410832774,
      "longitude_deg": -3.051825007864269,
      "height_km": 523.156465749251,
      "semi_major_axis_km": 6900.572381920063,
      "eccentricity": 0.0002093,
      "inclination_deg": 43.0009,
      "raan_deg": 104.8664,
      "arg_perigee_deg": 273.5436,
      "mean_anomaly_deg": 124.9662,
      "mean_motion_rev_day": 15.14520264
    },
    {
      "epoch": "2026-04-10T06:00:00.999648Z",
      "apogee_km": 521.8547013482939,
      "perigee_km": 520.0043717031986,
      "latitude_deg": 18.343614097822172,
      "longitude_deg": -26.638408155520434,
      "height_km": 521.0662537974329,
      "semi_major_axis_km": 6899.066536525746,
      "eccentricity": 0.0001341,
      "inclination_deg": 43.0011,
      "raan_deg": 102.5593,
      "arg_perigee_deg": 321.9115,
      "mean_anomaly_deg": 190.6931,
      "mean_motion_rev_day": 15.15016148
    }
  ]
}